NORAD_CAT_ID,OBJECT_NAME,OBJECT_TYPE,EPOCH,MEAN_MOTION,ECCENTRICITY,INCLINATION,RA_OF_ASC_NODE,ARG_OF_PERICENTER,MEAN_ANOMALY,BSTAR,MEAN_MOTION_DOT,MEAN_MOTION_DDOT,TLE_LINE0,TLE_LINE1,TLE_LINE2,SEMIMAJOR_AXIS,PERIOD,APOGEE,PERIGEE,DECAYED
52491.0,STARLINK-3908,PAYLOAD,2023-08-17 23:44:16,15.08833964,9.94e-05,53.2173,285.1576,88.0241,272.0865,6.8385e-05,8.01e-06,0.0,0 STARLINK-3908,1 52491U 22049AS  23229.98907760  .00000801  00000-0  68385-4 0  9995,2 52491  53.2173 285.1576 0000994  88.0241 272.0865 15.08833964 71446,6917.899,95.438,540.451,539.076,0.0
52491.0,STARLINK-3908,PAYLOAD,2023-08-19 12:18:07,15.08845877,9.78e-05,53.2172,278.3175,96.4092,263.7011,8.9321e-05,1.134e-05,0.0,0 STARLINK-3908,1 52491U 22049AS  23231.51259202  .00001134  00000-0  89321-4 0  9991,2 52491  53.2172 278.3175 0000978  96.4092 263.7011 15.08845877 71674,6917.862,95.437,540.404,539.051,0.0
52491.0,STARLINK-3908,PAYLOAD,2023-08-19 23:25:50,15.0883209,9.64e-05,53.2169,276.2359,94.3933,265.7169,0.00010148,1.327e-05,0.0,0 STARLINK-3908,1 52491U 22049AS  23231.97628076  .00001327  00000-0  10148-3 0  9994,2 52491  53.2169 276.2359 0000964  94.3933 265.7169 15.08832090 71744,6917.905,95.438,540.436,539.103,0.0
52491.0,STARLINK-3908,PAYLOAD,2023-08-21 02:27:23,15.08839443,8.52e-05,53.2159,271.1806,83.7466,276.3624,6.844e-05,8.02e-06,0.0,0 STARLINK-3908,1 52491U 22049AS  23233.10235889  .00000802  00000-0  68440-4 0  9993,2 52491  53.2159 271.1806 0000852  83.7466 276.3624 15.08839443 71915,6917.882,95.438,540.336,539.158,0.0
52491.0,STARLINK-3908,PAYLOAD,2023-08-22 08:39:43,15.08840206,0.0001026,53.2162,265.531,80.9404,279.1704,8.1684e-05,1.012e-05,0.0,0 STARLINK-3908,1 52491U 22049AS  23234.36091901  .00001012  00000-0  81684-4 0  9996,2 52491  53.2162 265.5310 0001026  80.9404 279.1704 15.08840206 72102,6917.88,95.438,540.455,539.035,0.0
52491.0,STARLINK-3908,PAYLOAD,2023-08-23 11:41:16,15.08840877,0.0001097,53.2165,260.475,90.5642,269.5476,4.4196e-05,4.16e-06,0.0,0 STARLINK-3908,1 52491U 22049AS  23235.48699983  .00000416  00000-0  44196-4 0  9998,2 52491  53.2165 260.4750 0001097  90.5642 269.5476 15.08840877 72277,6917.878,95.437,540.502,538.984,0.0
52491.0,STARLINK-3908,PAYLOAD,2023-08-24 06:45:54,15.08838097,0.0001152,53.2165,256.9058,101.6084,258.5037,3.4766e-05,2.65e-06,0.0,0 STARLINK-3908,1 52491U 22049AS  23236.28188199  .00000265  00000-0  34766-4 0  9993,2 52491  53.2165 256.9058 0001152 101.6084 258.5037 15.08838097 72232,6917.886,95.438,540.548,538.954,0.0
52491.0,STARLINK-3908,PAYLOAD,2023-08-25 01:50:32,15.08837842,0.0001111,53.2161,253.3375,96.1542,263.9576,4.0679e-05,3.6e-06,0.0,0 STARLINK-3908,1 52491U 22049AS  23237.07676371  .00000360  00000-0  40679-4 0  9991,2 52491  53.2161 253.3375 0001111  96.1542 263.9576 15.08837842 72519,6917.887,95.438,540.521,538.983,0.0
52491.0,STARLINK-3908,PAYLOAD,2023-08-25 06:36:41,15.08838436,0.0001132,53.2162,252.4454,95.7409,264.3712,4.2565e-05,3.9e-06,0.0,0 STARLINK-3908,1 52491U 22049AS  23237.27548346  .00000390  00000-0  42565-4 0  9992,2 52491  53.2162 252.4454 0001132  95.7409 264.3712 15.08838436 72380,6917.885,95.438,540.533,538.967,0.0
52491.0,STARLINK-3908,PAYLOAD,2023-08-26 08:02:52,15.0883926,0.0001163,53.2167,247.6879,95.7949,264.3176,6.7156e-05,7.81e-06,0.0,0 STARLINK-3908,1 52491U 22049AS  23238.33532412  .00000781  00000-0  67156-4 0  9994,2 52491  53.2167 247.6879 0001163  95.7949 264.3176 15.08839260 72701,6917.883,95.438,540.552,538.943,0.0
52491.0,STARLINK-3908,PAYLOAD,2023-08-27 04:42:53,15.08837793,0.0001191,53.2168,243.8216,95.067,265.0458,4.5114e-05,4.3e-06,0.0,0 STARLINK-3908,1 52491U 22049AS  23239.19644684  .00000430  00000-0  45114-4 0  9995,2 52491  53.2168 243.8216 0001191  95.0670 265.0458 15.08837793 72676,6917.887,95.438,540.576,538.928,0.0
52491.0,STARLINK-3908,PAYLOAD,2023-08-28 01:22:53,15.08839444,0.0001152,53.2166,239.9557,93.008,267.1044,3.2782e-05,2.34e-06,0.0,0 STARLINK-3908,1 52491U 22049AS  23240.05756716  .00000234  00000-0  32782-4 0  9991,2 52491  53.2166 239.9557 0001152  93.0080 267.1044 15.08839444 72969,6917.882,95.438,540.544,538.95,0.0
52491.0,STARLINK-3908,PAYLOAD,2023-08-28 17:16:44,15.08841532,0.0001235,53.2168,236.9822,89.9261,270.1873,5.7199e-05,6.23e-06,0.0,0 STARLINK-3908,1 52491U 22049AS  23240.71996494  .00000623  00000-0  57199-4 0  9994,2 52491  53.2168 236.9822 0001235  89.9261 270.1873 15.08841532 72909,6917.876,95.437,540.595,538.886,0.0
52491.0,STARLINK-3908,PAYLOAD,2023-08-29 09:10:36,15.08843651,0.0001267,53.2164,234.0081,93.5511,266.5626,8.6637e-05,1.091e-05,0.0,0 STARLINK-3908,1 52491U 22049AS  23241.38236204  .00001091  00000-0  86637-4 0  9993,2 52491  53.2164 234.0081 0001267  93.5511 266.5626 15.08843651 73163,6917.869,95.437,540.611,538.858,0.0
52491.0,STARLINK-3908,PAYLOAD,2023-08-30 02:39:51,15.08835907,0.0001257,53.216,230.7375,91.721,268.3926,1.0478e-06,-2.71e-06,0.0,0 STARLINK-3908,1 52491U 22049AS  23242.11101042 -.00000271  00000-0  10478-5 0  9997,2 52491  53.2160 230.7375 0001257  91.7210 268.3926 15.08835907 73273,6917.893,95.438,540.627,538.888,0.0
52491.0,STARLINK-3908,PAYLOAD,2023-08-30 10:36:46,15.08839625,0.000127,53.216,229.2515,86.8876,273.2261,2.8581e-05,1.67e-06,0.0,0 STARLINK-3908,1 52491U 22049AS  23242.44220781  .00000167  00000-0  28581-4 0  9991,2 52491  53.2160 229.2515 0001270  86.8876 273.2261 15.08839625 73166,6917.882,95.438,540.625,538.868,0.0
52491.0,STARLINK-3908,PAYLOAD,2023-08-31 07:16:47,15.08841967,0.0001307,53.2163,225.3856,87.6173,272.4969,-1.1663e-05,-4.74e-06,0.0,0 STARLINK-3908,1 52491U 22049AS  23243.30332841 -.00000474  00000-0 -11663-4 0  9994,2 52491  53.2163 225.3856 0001307  87.6173 272.4969 15.08841967 73454,6917.874,95.437,540.644,538.835,0.0
52491.0,STARLINK-3908,PAYLOAD,2023-09-01 07:07:34,15.08838948,0.0001332,53.2168,220.9246,86.0993,274.0152,6.7658e-05,7.89e-06,0.0,0 STARLINK-3908,1 52491U 22049AS  23244.29692945  .00000789  00000-0  67658-4 0  9999,2 52491  53.2168 220.9246 0001332  86.0993 274.0152 15.08838948 73440,6917.884,95.438,540.67,538.827,0.0
52491.0,STARLINK-3908,PAYLOAD,2023-09-01 15:04:30,15.0883956,0.0001335,53.217,219.4378,86.1399,273.9745,5.7528e-05,6.28e-06,0.0,0 STARLINK-3908,1 52491U 22049AS  23244.62812969  .00000628  00000-0  57528-4 0  9993,2 52491  53.2170 219.4378 0001335  86.1399 273.9745 15.08839560 73656,6917.882,95.438,540.67,538.823,0.0
52491.0,STARLINK-3908,PAYLOAD,2023-09-02 06:58:21,15.0884146,0.0001323,53.2168,216.4645,87.3126,272.8018,4.8543e-05,4.85e-06,0.0,0 STARLINK-3908,1 52491U 22049AS  23245.29052903  .00000485  00000-0  48543-4 0  9999,2 52491  53.2168 216.4645 0001323  87.3126 272.8018 15.08841460 73591,6917.876,95.437,540.656,538.826,0.0
52491.0,STARLINK-3908,PAYLOAD,2023-09-02 14:55:18,15.08829821,0.0001219,53.2169,214.9775,83.499,276.6141,-5.9127e-05,-1.228e-05,0.0,0 STARLINK-3908,1 52491U 22049AS  23245.62174041 -.00001228  00000-0 -59127-4 0  9992,2 52491  53.2169 214.9775 0001219  83.4990 276.6141 15.08829821 73809,6917.912,95.438,540.62,538.933,0.0
52491.0,STARLINK-3908,PAYLOAD,2023-09-03 09:59:56,15.08828927,0.0001371,53.2166,211.4105,90.9397,269.1752,-2.4393e-05,-6.76e-06,0.0,0 STARLINK-3908,1 52491U 22049AS  23246.41662712 -.00000676  00000-0 -24393-4 0  9990,2 52491  53.2166 211.4105 0001371  90.9397 269.1752 15.08828927 73764,6917.914,95.438,540.728,538.831,0.0
52491.0,STARLINK-3908,PAYLOAD,2023-09-03 21:07:38,15.088365,0.0001385,53.2164,209.3285,87.9125,272.2026,-1.1372e-05,-4.69e-06,0.0,0 STARLINK-3908,1 52491U 22049AS  23246.88030420 -.00000469  00000-0 -11372-4 0  9999,2 52491  53.2164 209.3285 0001385  87.9125 272.2026 15.08836500 73997,6917.891,95.438,540.714,538.798,0.0
52491.0,STARLINK-3908,PAYLOAD,2023-09-04 08:15:19,15.08838764,0.0001556,53.2174,207.2466,86.2581,273.8589,0.00017176,2.447e-05,0.0,0 STARLINK-3908,1 52491U 22049AS  23247.34397705  .00002447  00000-0  17176-3 0  9996,2 52491  53.2174 207.2466 0001556  86.2581 273.8589 15.08838764 74068,6917.884,95.438,540.826,538.673,0.0
52491.0,STARLINK-3908,PAYLOAD,2023-09-05 03:19:57,15.08836099,0.0001439,53.2166,203.6783,84.4173,275.6983,0.00021553,3.144e-05,0.0,0 STARLINK-3908,1 52491U 22049AS  23248.13886133  .00003144  00000-0  21553-3 0  9991,2 52491  53.2166 203.6783 0001439  84.4173 275.6983 15.08836099 74188,6917.892,95.438,540.753,538.762,0.0
52491.0,STARLINK-3908,PAYLOAD,2023-09-05 04:55:20,15.08841543,0.0001378,53.2169,203.3802,85.7834,274.3316,0.00017505,2.499e-05,0.0,0 STARLINK-3908,1 52491U 22049AS  23248.20509962  .00002499  00000-0  17505-3 0  9995,2 52491  53.2169 203.3802 0001378  85.7834 274.3316 15.08841543 74030,6917.876,95.437,540.694,538.787,0.0
52491.0,STARLINK-3908,PAYLOAD,2023-09-06 20:39:58,15.0884373,0.0001416,53.2172,195.9473,82.8534,277.2619,5.6931e-05,6.18e-06,0.0,0 STARLINK-3908,1 52491U 22049AS  23249.86109761  .00000618  00000-0  56931-4 0  9999,2 52491  53.2172 195.9473 0001416  82.8534 277.2619 15.08843730 74287,6917.869,95.437,540.714,538.754,0.0
52491.0,STARLINK-3908,PAYLOAD,2023-09-06 23:50:45,15.08842053,0.0001416,53.2172,195.3526,83.0474,277.0679,2.9623e-05,1.84e-06,0.0,0 STARLINK-3908,1 52491U 22049AS  23249.99357903  .00000184  00000-0  29623-4 0  9992,2 52491  53.2172 195.3526 0001416  83.0474 277.0679 15.08842053 74467,6917.874,95.437,540.719,538.76,0.0
52491.0,STARLINK-3908,PAYLOAD,2023-09-07 06:12:17,15.08845629,0.0001392,53.2172,194.1623,85.5722,274.5429,7.1949e-06,-1.73e-06,0.0,0 STARLINK-3908,1 52491U 22049AS  23250.25853652 -.00000173  00000-0  71949-5 0  9993,2 52491  53.2172 194.1623 0001392  85.5722 274.5429 15.08845629 74342,6917.863,95.437,540.691,538.765,0.0
52491.0,STARLINK-3908,PAYLOAD,2023-09-08 02:52:18,15.08840922,0.0001296,53.217,190.2953,87.869,272.2451,7.8849e-05,9.67e-06,0.0,0 STARLINK-3908,1 52491U 22049AS  23251.11965516  .00000967  00000-0  78849-4 0  9997,2 52491  53.2170 190.2953 0001296  87.8690 272.2451 15.08840922 74638,6917.878,95.437,540.639,538.846,0.0
